[{"OBJECT_NAME":"ONEWEB-0229","OBJECT_ID":"2021-045N","EPOCH":"2025-10-23T10:44:15.730656","MEAN_MOTION":13.15549061,"ECCENTRICITY":0.0001751,"INCLINATION":87.8962,"RA_OF_ASC_NODE":306.4322,"ARG_OF_PERICENTER":96.6254,"MEAN_ANOMALY":263.5075,"EPHEMERIS_TYPE":0,"CLASSIFICATION_TYPE":"U","NORAD_CAT_ID":48779,"ELEMENT_SET_NO":999,"REV_AT_EPOCH":21328,"BSTAR":-0.00023132,"MEAN_MOTION_DOT":-7.4e-7,"MEAN_MOTION_DDOT":0},{"OBJECT_NAME":"ONEWEB-0228","OBJECT_ID":"2021-045P","EPOCH":"2025-10-23T11:32:23.119296","MEAN_MOTION":13.15548994,"ECCENTRICITY":0.000185,"INCLINATION":87.8973,"RA_OF_ASC_NODE":306.4043,"ARG_OF_PERICENTER":95.9278,"MEAN_ANOMALY":264.2063,"EPHEMERIS_TYPE":0,"CLASSIFICATION_TYPE":"U","NORAD_CAT_ID":48780,"ELEMENT_SET_NO":999,"REV_AT_EPOCH":21320,"BSTAR":0.0003592,"MEAN_MOTION_DOT":1.48e-6,"MEAN_MOTION_DDOT":0},{"OBJECT_NAME":"ONEWEB-0232","OBJECT_ID":"2021-045Q","EPOCH":"2025-10-23T10:55:40.519776","MEAN_MOTION":13.15549758,"ECCENTRICITY":0.0001839,"INCLINATION":87.8973,"RA_OF_ASC_NODE":306.4001,"ARG_OF_PERICENTER":93.624,"MEAN_ANOMALY":266.51,"EPHEMERIS_TYPE":0,"CLASSIFICATION_TYPE":"U","NORAD_CAT_ID":48781,"ELEMENT_SET_NO":999,"REV_AT_EPOCH":21352,"BSTAR":-0.00018764,"MEAN_MOTION_DOT":-5.8e-7,"MEAN_MOTION_DDOT":0},{"OBJECT_NAME":"ONEWEB-0231","OBJECT_ID":"2021-045R","EPOCH":"2025-10-23T12:13:15.698208","MEAN_MOTION":13.15549222,"ECCENTRICITY":0.0001827,"INCLINATION":87.8961,"RA_OF_ASC_NODE":306.4387,"ARG_OF_PERICENTER":102.6634,"MEAN_ANOMALY":257.4701,"EPHEMERIS_TYPE":0,"CLASSIFICATION_TYPE":"U","NORAD_CAT_ID":48782,"ELEMENT_SET_NO":999,"REV_AT_EPOCH":21322,"BSTAR":-0.00020956,"MEAN_MOTION_DOT":-6.6e-7,"MEAN_MOTION_DDOT":0},{"OBJECT_NAME":"ONEWEB-0234","OBJECT_ID":"2021-045S","EPOCH":"2025-10-23T11:18:17.709120","MEAN_MOTION":13.15548912,"ECCENTRICITY":0.0002578,"INCLINATION":87.8965,"RA_OF_ASC_NODE":306.4178,"ARG_OF_PERICENTER":80.1609,"MEAN_ANOMALY":279.9812,"EPHEMERIS_TYPE":0,"CLASSIFICATION_TYPE":"U","NORAD_CAT_ID":48783,"ELEMENT_SET_NO":999,"REV_AT_EPOCH":21335,"BSTAR":0.00041456,"MEAN_MOTION_DOT":1.69e-6,"MEAN_MOTION_DDOT":0},{"OBJECT_NAME":"ONEWEB-0238","OBJECT_ID":"2021-045T","EPOCH":"2025-10-23T11:18:40.453056","MEAN_MOTION":13.1554646,"ECCENTRICITY":0.0002112,"INCLINATION":87.8962,"RA_OF_ASC_NODE":306.4124,"ARG_OF_PERICENTER":86.8918,"MEAN_ANOMALY":273.2454,"EPHEMERIS_TYPE":0,"CLASSIFICATION_TYPE":"U","NORAD_CAT_ID":48784,"ELEMENT_SET_NO":999,"REV_AT_EPOCH":21325,"BSTAR":0.00025898,"MEAN_MOTION_DOT":1.1e-6,"MEAN_MOTION_DDOT":0},{"OBJECT_NAME":"ONEWEB-0240","OBJECT_ID":"2021-045U","EPOCH":"2025-10-23T09:59:46.546944","MEAN_MOTION":13.1554726,"ECCENTRICITY":0.0002171,"INCLINATION":87.8971,"RA_OF_ASC_NODE":306.4109,"ARG_OF_PERICENTER":98.4494,"MEAN_ANOMALY":261.6882,"EPHEMERIS_TYPE":0,"CLASSIFICATION_TYPE":"U","NORAD_CAT_ID":48785,"ELEMENT_SET_NO":999,"REV_AT_EPOCH":21327,"BSTAR":0.00023309,"MEAN_MOTION_DOT":1.01e-6,"MEAN_MOTION_DDOT":0},{"OBJECT_NAME":"ONEWEB-0246","OBJECT_ID":"2021-045V","EPOCH":"2025-10-23T09:51:47.649024","MEAN_MOTION":13.15548225,"ECCENTRICITY":0.000173,"INCLINATION":87.8973,"RA_OF_ASC_NODE":306.4253,"ARG_OF_PERICENTER":97.4783,"MEAN_ANOMALY":262.6544,"EPHEMERIS_TYPE":0,"CLASSIFICATION_TYPE":"U","NORAD_CAT_ID":48786,"ELEMENT_SET_NO":999,"REV_AT_EPOCH":21314,"BSTAR":0.00031547,"MEAN_MOTION_DOT":1.32e-6,"MEAN_MOTION_DDOT":0},{"OBJECT_NAME":"ONEWEB-0210","OBJECT_ID":"2021-045W","EPOCH":"2025-10-23T11:04:48.460800","MEAN_MOTION":13.15548699,"ECCENTRICITY":0.0001676,"INCLINATION":87.8971,"RA_OF_ASC_NODE":306.4145,"ARG_OF_PERICENTER":114.5315,"MEAN_ANOMALY":245.599,"EPHEMERIS_TYPE":0,"CLASSIFICATION_TYPE":"U","NORAD_CAT_ID":48787,"ELEMENT_SET_NO":999,"REV_AT_EPOCH":21319,"BSTAR":0.00011445,"MEAN_MOTION_DOT":5.6e-7,"MEAN_MOTION_DDOT":0},{"OBJECT_NAME":"ONEWEB-0214","OBJECT_ID":"2021-045X","EPOCH":"2025-10-23T11:17:21.454080","MEAN_MOTION":13.15547491,"ECCENTRICITY":0.0001543,"INCLINATION":87.8968,"RA_OF_ASC_NODE":306.3996,"ARG_OF_PERICENTER":104.8764,"MEAN_ANOMALY":255.2538,"EPHEMERIS_TYPE":0,"CLASSIFICATION_TYPE":"U","NORAD_CAT_ID":48788,"ELEMENT_SET_NO":999,"REV_AT_EPOCH":21316,"BSTAR":0.00037208,"MEAN_MOTION_DOT":1.53e-6,"MEAN_MOTION_DDOT":0},{"OBJECT_NAME":"ONEWEB-0221","OBJECT_ID":"2021-045Y","EPOCH":"2025-10-23T11:27:37.880064","MEAN_MOTION":13.15548951,"ECCENTRICITY":0.0001924,"INCLINATION":87.8961,"RA_OF_ASC_NODE":306.4206,"ARG_OF_PERICENTER":100.419,"MEAN_ANOMALY":259.7157,"EPHEMERIS_TYPE":0,"CLASSIFICATION_TYPE":"U","NORAD_CAT_ID":48789,"ELEMENT_SET_NO":999,"REV_AT_EPOCH":21325,"BSTAR":0.00039941,"MEAN_MOTION_DOT":1.63e-6,"MEAN_MOTION_DDOT":0},{"OBJECT_NAME":"ONEWEB-0213","OBJECT_ID":"2021-045Z","EPOCH":"2025-10-23T11:11:39.297984","MEAN_MOTION":13.15547799,"ECCENTRICITY":0.0001838,"INCLINATION":87.8962,"RA_OF_ASC_NODE":306.432,"ARG_OF_PERICENTER":101.2899,"MEAN_ANOMALY":258.8438,"EPHEMERIS_TYPE":0,"CLASSIFICATION_TYPE":"U","NORAD_CAT_ID":48790,"ELEMENT_SET_NO":999,"REV_AT_EPOCH":21331,"BSTAR":0.00018399,"MEAN_MOTION_DOT":8.2e-7,"MEAN_MOTION_DDOT":0},{"OBJECT_NAME":"ONEWEB-0212","OBJECT_ID":"2021-045AA","EPOCH":"2025-10-23T10:38:33.198720","MEAN_MOTION":13.15547183,"ECCENTRICITY":0.0001914,"INCLINATION":87.8973,"RA_OF_ASC_NODE":306.4219,"ARG_OF_PERICENTER":91.9023,"MEAN_ANOMALY":268.2326,"EPHEMERIS_TYPE":0,"CLASSIFICATION_TYPE":"U","NORAD_CAT_ID":48791,"ELEMENT_SET_NO":999,"REV_AT_EPOCH":21330,"BSTAR":-0.00029369,"MEAN_MOTION_DOT":-9.8e-7,"MEAN_MOTION_DDOT":0},{"OBJECT_NAME":"ONEWEB-0227","OBJECT_ID":"2021-045AB","EPOCH":"2025-10-23T10:37:25.424832","MEAN_MOTION":13.15549289,"ECCENTRICITY":0.0001905,"INCLINATION":87.8962,"RA_OF_ASC_NODE":306.4376,"ARG_OF_PERICENTER":96.3955,"MEAN_ANOMALY":263.7392,"EPHEMERIS_TYPE":0,"CLASSIFICATION_TYPE":"U","NORAD_CAT_ID":48792,"ELEMENT_SET_NO":999,"REV_AT_EPOCH":21325,"BSTAR":-0.00029019,"MEAN_MOTION_DOT":-9.6e-7,"MEAN_MOTION_DDOT":0},{"OBJECT_NAME":"ONEWEB-0226","OBJECT_ID":"2021-045AC","EPOCH":"2025-10-23T12:17:49.676064","MEAN_MOTION":13.15548457,"ECCENTRICITY":0.0001743,"INCLINATION":87.8965,"RA_OF_ASC_NODE":306.4317,"ARG_OF_PERICENTER":103.9055,"MEAN_ANOMALY":256.2269,"EPHEMERIS_TYPE":0,"CLASSIFICATION_TYPE":"U","NORAD_CAT_ID":48793,"ELEMENT_SET_NO":999,"REV_AT_EPOCH":21323,"BSTAR":-0.00021852,"MEAN_MOTION_DOT":-6.9e-7,"MEAN_MOTION_DDOT":0},{"OBJECT_NAME":"ONEWEB-0224","OBJECT_ID":"2021-045AD","EPOCH":"2025-10-23T11:25:19.989120","MEAN_MOTION":13.15549613,"ECCENTRICITY":0.0002821,"INCLINATION":87.8962,"RA_OF_ASC_NODE":306.4739,"ARG_OF_PERICENTER":96.6439,"MEAN_ANOMALY":263.5013,"EPHEMERIS_TYPE":0,"CLASSIFICATION_TYPE":"U","NORAD_CAT_ID":48794,"ELEMENT_SET_NO":999,"REV_AT_EPOCH":21315,"BSTAR":0.00040637,"MEAN_MOTION_DOT":1.66e-6,"MEAN_MOTION_DDOT":0},{"OBJECT_NAME":"ONEWEB-0233","OBJECT_ID":"2021-045AE","EPOCH":"2025-10-23T11:31:59.253024","MEAN_MOTION":13.15548558,"ECCENTRICITY":0.0002066,"INCLINATION":87.8963,"RA_OF_ASC_NODE":306.4842,"ARG_OF_PERICENTER":100.8367,"MEAN_ANOMALY":259.2996,"EPHEMERIS_TYPE":0,"CLASSIFICATION_TYPE":"U","NORAD_CAT_ID":48795,"ELEMENT_SET_NO":999,"REV_AT_EPOCH":21317,"BSTAR":0.00052049,"MEAN_MOTION_DOT":2.09e-6,"MEAN_MOTION_DDOT":0},{"OBJECT_NAME":"ONEWEB-0190","OBJECT_ID":"2021-045AF","EPOCH":"2025-10-23T11:13:55.930080","MEAN_MOTION":13.15548887,"ECCENTRICITY":0.0002093,"INCLINATION":87.8961,"RA_OF_ASC_NODE":306.4489,"ARG_OF_PERICENTER":115.233,"MEAN_ANOMALY":244.9018,"EPHEMERIS_TYPE":0,"CLASSIFICATION_TYPE":"U","NORAD_CAT_ID":48796,"ELEMENT_SET_NO":999,"REV_AT_EPOCH":21324,"BSTAR":0.00021631,"MEAN_MOTION_DOT":9.4e-7,"MEAN_MOTION_DDOT":0},{"OBJECT_NAME":"ONEWEB-0236","OBJECT_ID":"2021-045AG","EPOCH":"2025-10-23T11:39:01.950336","MEAN_MOTION":13.15548531,"ECCENTRICITY":0.0001898,"INCLINATION":87.8963,"RA_OF_ASC_NODE":306.4566,"ARG_OF_PERICENTER":88.7493,"MEAN_ANOMALY":271.3855,"EPHEMERIS_TYPE":0,"CLASSIFICATION_TYPE":"U","NORAD_CAT_ID":48797,"ELEMENT_SET_NO":999,"REV_AT_EPOCH":21313,"BSTAR":0.00053155,"MEAN_MOTION_DOT":2.13e-6,"MEAN_MOTION_DDOT":0},{"OBJECT_NAME":"ONEWEB-0248","OBJECT_ID":"2021-045AH","EPOCH":"2025-10-23T10:07:44.387328","MEAN_MOTION":13.15546942,"ECCENTRICITY":0.0002341,"INCLINATION":87.8974,"RA_OF_ASC_NODE":306.4277,"ARG_OF_PERICENTER":103.052,"MEAN_ANOMALY":257.0872,"EPHEMERIS_TYPE":0,"CLASSIFICATION_TYPE":"U","NORAD_CAT_ID":48798,"ELEMENT_SET_NO":999,"REV_AT_EPOCH":21328,"BSTAR":0.00022133,"MEAN_MOTION_DOT":9.6e-7,"MEAN_MOTION_DDOT":0},{"OBJECT_NAME":"ONEWEB-0225","OBJECT_ID":"2021-045AJ","EPOCH":"2025-10-23T10:39:42.577920","MEAN_MOTION":13.15548407,"ECCENTRICITY":0.0002049,"INCLINATION":87.8965,"RA_OF_ASC_NODE":306.4514,"ARG_OF_PERICENTER":110.5177,"MEAN_ANOMALY":249.6173,"EPHEMERIS_TYPE":0,"CLASSIFICATION_TYPE":"U","NORAD_CAT_ID":48799,"ELEMENT_SET_NO":999,"REV_AT_EPOCH":21329,"BSTAR":-0.00019769,"MEAN_MOTION_DOT":-6.2e-7,"MEAN_MOTION_DDOT":0},{"OBJECT_NAME":"ONEWEB-0215","OBJECT_ID":"2021-045AK","EPOCH":"2025-10-23T09:56:20.071680","MEAN_MOTION":13.15550373,"ECCENTRICITY":0.0002255,"INCLINATION":87.8974,"RA_OF_ASC_NODE":306.4127,"ARG_OF_PERICENTER":110.0069,"MEAN_ANOMALY":250.1304,"EPHEMERIS_TYPE":0,"CLASSIFICATION_TYPE":"U","NORAD_CAT_ID":48800,"ELEMENT_SET_NO":999,"REV_AT_EPOCH":21316,"BSTAR":0.00031377,"MEAN_MOTION_DOT":1.31e-6,"MEAN_MOTION_DDOT":0},{"OBJECT_NAME":"ONEWEB-0216","OBJECT_ID":"2021-045AL","EPOCH":"2025-10-23T10:10:01.642368","MEAN_MOTION":13.15550161,"ECCENTRICITY":0.0001662,"INCLINATION":87.8963,"RA_OF_ASC_NODE":306.4473,"ARG_OF_PERICENTER":96.8984,"MEAN_ANOMALY":263.2335,"EPHEMERIS_TYPE":0,"CLASSIFICATION_TYPE":"U","NORAD_CAT_ID":48801,"ELEMENT_SET_NO":999,"REV_AT_EPOCH":21317,"BSTAR":0.00013577,"MEAN_MOTION_DOT":6.4e-7,"MEAN_MOTION_DDOT":0},{"OBJECT_NAME":"ONEWEB-0239","OBJECT_ID":"2021-045AM","EPOCH":"2025-10-23T12:06:24.993216","MEAN_MOTION":13.15548014,"ECCENTRICITY":0.0002511,"INCLINATION":87.8965,"RA_OF_ASC_NODE":306.446,"ARG_OF_PERICENTER":105.8366,"MEAN_ANOMALY":254.3041,"EPHEMERIS_TYPE":0,"CLASSIFICATION_TYPE":"U","NORAD_CAT_ID":48802,"ELEMENT_SET_NO":999,"REV_AT_EPOCH":21322,"BSTAR":1.0748e-6,"MEAN_MOTION_DOT":1.3e-7,"MEAN_MOTION_DDOT":0}]
